ONEWEB-0531             
1 54146U 22138AK  26025.27942949  .00000030  00000+0  42735-4 0  9994
2 54146  87.9231 302.9503 0002264  99.4043 260.7346 13.20773288160441
ONEWEB-0535             
1 54147U 22138AL  26025.31627226  .00000082  00000+0  17250-3 0  9998
2 54147  87.9251 333.3829 0002140  83.2625 276.8751 13.19727767157996
ONEWEB-0536             
1 54148U 22138AM  26025.26679208  .00000158  00000+0  35674-3 0  9994
2 54148  87.9222 302.9917 0002223 103.5106 256.6275 13.20774795160432
ONEWEB-0527             
1 54642U 22166A   26025.10450948  .00000103  00000+0  21877-3 0  9995
2 54642  87.9204 272.5426 0001460  81.9821 278.1478 13.21825072152636
ONEWEB-0528             
1 54643U 22166B   26025.11108417  .00000125  00000+0  27161-3 0  9994
2 54643  87.9206 272.5451 0001433  78.4476 281.6819 13.21829052152645
ONEWEB-0539             
1 54644U 22166C   26025.22465292  .00000088  00000+0  18253-3 0  9994
2 54644  87.9203 272.4876 0001592  71.0139 289.1167 13.21826263152655
ONEWEB-0540             
1 54645U 22166D   26025.23135739  .00000072  00000+0  14279-3 0  9993
2 54645  87.9200 272.5237 0001672  75.9617 284.1703 13.21825635152640
ONEWEB-0542             
1 54646U 22166E   26025.23452567  .00000040  00000+0  66105-4 0  9996
2 54646  87.9208 272.4805 0001801  69.7908 290.3420 13.21826790152656
